OBJECT_NAME,OBJECT_ID,EPOCH,MEAN_MOTION,ECCENTRICITY,INCLINATION,RA_OF_ASC_NODE,ARG_OF_PERICENTER,MEAN_ANOMALY,EPHEMERIS_TYPE,CLASSIFICATION_TYPE,NORAD_CAT_ID,ELEMENT_SET_NO,REV_AT_EPOCH,BSTAR,MEAN_MOTION_DOT,MEAN_MOTION_DDOT
IONOSFERA-M 2,2024-199B,2026-06-24T06:15:21.017952,14.22758703,.00007431,98.7165,48.2685,37.0286,323.0943,0,U,61736,999,13183,.31091639E-4,.26E-6,0
PRSC-EO1,2025-012A,2026-06-24T07:30:00.348192,15.17684149,.0005296,97.4226,247.6330,221.3496,138.7337,0,U,62725,999,7927,.27760623E-3,.5529E-4,0
BIOMASS,2025-090A,2026-06-23T18:48:18.522144,14.67537556,.00014222,98.0745,2.0054,96.5585,263.5782,0,U,63772,999,6165,.96954028E-4,.502E-5,0
GOSAT-GW (IBUKI GW),2025-141A,2026-06-24T05:06:29.280096,14.67555209,.00014179,98.0568,112.4157,83.7195,276.4171,0,U,64694,999,5287,.88811841E-4,.456E-5,0
IONOSFERA-M 3,2025-155A,2026-06-24T06:49:57.417312,14.21487555,.00014077,98.6027,137.0111,144.7751,215.3520,0,U,64876,999,4741,.3920946E-4,.43E-6,0
IONOSFERA-M 4,2025-155B,2026-06-24T07:40:06.729312,14.21489910,.00012874,98.6026,136.9624,117.1106,243.0203,0,U,64877,999,4741,.43524746E-4,.52E-6,0
MICROCARB,2025-156A,2026-06-23T22:41:42.685152,14.72462875,.00151216,97.9873,251.9645,245.8477,114.1150,0,U,64899,999,4896,.70901121E-4,.4E-5,0
CO3D 3,2025-156B,2026-06-24T05:32:09.983904,15.20199339,.00017394,97.4330,253.8225,122.6712,237.4691,0,U,64900,999,5060,.18116866E-3,.3856E-4,0
CO3D 4,2025-156C,2026-06-24T05:32:23.247168,15.20201130,.00003081,97.4330,253.8224,192.2951,167.8277,0,U,64901,999,5060,.18216742E-3,.3878E-4,0
CO3D 2,2025-156D,2026-06-24T06:19:09.278112,15.20201034,.00015026,97.4329,253.7534,102.0001,258.1403,0,U,64902,999,5060,.15319617E-3,.325E-4,0
CO3D 1,2025-156E,2026-06-24T06:19:21.530496,15.20218420,.00014121,97.4328,253.7536,111.4021,248.7365,0,U,64903,999,5060,.16596689E-3,.3529E-4,0
PRSC-S1,2025-164A,2026-06-24T05:24:02.497824,15.06506471,.00055394,41.1298,248.1738,33.2746,326.8416,0,U,65055,999,4949,.22955032E-3,.3275E-4,0
SENTINEL-6B,2025-264A,2026-06-24T04:34:40.084608,12.80929981,.00079743,66.0405,120.6321,269.0501,90.9601,0,U,66514,999,2806,.18751741E-4,-.57E-6,0
CAS500-3,2025-274F,2026-06-24T01:44:49.554528,14.88335019,.00069587,97.7445,102.9673,92.6618,267.5395,0,U,66655,999,3117,.11301177E-3,.992E-5,0
CSG-3,2026-001A,2026-06-24T05:16:59.277792,14.82157806,.00014332,97.8889,358.7200,96.5422,263.5955,0,U,67304,999,2550,.41156324E-4,.275E-5,0
PRSC-E03,2026-092A,2026-06-24T01:56:23.317152,15.06699831,.0002727,38.0020,49.0289,71.0062,289.0995,0,U,68835,999,899,.16607338E-3,.2405E-4,0
CAS500-2,2026-100AK,2026-06-23T23:54:01.873728,15.20656354,.00099624,97.4073,72.7333,13.7472,346.4033,0,U,69013,999,784,.23581024E-3,.5114E-4,0
