IONOSFERA-M 2           
1 61736U 24199B   26175.26065993  .00000026  00000+0  31092-4 0  9995
2 61736  98.7165  48.2685 0000743  37.0286 323.0943 14.22758703131833
PRSC-EO1                
1 62725U 25012A   26175.31250403  .00005529  00000+0  27761-3 0  9997
2 62725  97.4226 247.6330 0005296 221.3496 138.7337 15.17684149 79271
BIOMASS                 
1 63772U 25090A   26174.78354771  .00000502  00000+0  96954-4 0  9996
2 63772  98.0745   2.0054 0001422  96.5585 263.5782 14.67537556 61658
GOSAT-GW (IBUKI GW)     
1 64694U 25141A   26175.21283889  .00000456  00000+0  88812-4 0  9999
2 64694  98.0568 112.4157 0001417  83.7195 276.4171 14.67555209 52878
IONOSFERA-M 3           
1 64876U 25155A   26175.28469233  .00000043  00000+0  39209-4 0  9990
2 64876  98.6027 137.0111 0001407 144.7751 215.3520 14.21487555 47416
IONOSFERA-M 4           
1 64877U 25155B   26175.31952233  .00000052  00000+0  43525-4 0  9998
2 64877  98.6026 136.9624 0001287 117.1106 243.0203 14.21489910 47410
MICROCARB               
1 64899U 25156A   26174.94563293  .00000400  00000+0  70901-4 0  9990
2 64899  97.9873 251.9645 0015121 245.8477 114.1150 14.72462875 48966
CO3D 3                  
1 64900U 25156B   26175.23067111  .00003856  00000+0  18117-3 0  9992
2 64900  97.4330 253.8225 0001739 122.6712 237.4691 15.20199339 50600
CO3D 4                  
1 64901U 25156C   26175.23082462  .00003878  00000+0  18217-3 0  9994
2 64901  97.4330 253.8224 0000308 192.2951 167.8277 15.20201130 50608
CO3D 2                  
1 64902U 25156D   26175.26330183  .00003250  00000+0  15320-3 0  9990
2 64902  97.4329 253.7534 0001502 102.0001 258.1403 15.20201034 50600
CO3D 1                  
1 64903U 25156E   26175.26344364  .00003529  00000+0  16597-3 0  9993
2 64903  97.4328 253.7536 0001412 111.4021 248.7365 15.20218420 50607
PRSC-S1                 
1 65055U 25164A   26175.22502891  .00003275  00000+0  22955-3 0  9991
2 65055  41.1298 248.1738 0005539  33.2746 326.8416 15.06506471 49499
SENTINEL-6B             
1 66514U 25264A   26175.19074172 -.00000057  00000+0  18752-4 0  9992
2 66514  66.0405 120.6321 0007974 269.0501  90.9601 12.80929981 28060
CAS500-3                
1 66655U 25274F   26175.07279577  .00000992  00000+0  11301-3 0  9991
2 66655  97.7445 102.9673 0006958  92.6618 267.5395 14.88335019 31175
CSG-3                   
1 67304U 26001A   26175.22013053  .00000275  00000+0  41156-4 0  9990
2 67304  97.8889 358.7200 0001433  96.5422 263.5955 14.82157806 25504
PRSC-E03                
1 68835U 26092A   26175.08082543  .00002405  00000+0  16607-3 0  9993
2 68835  38.0020  49.0289 0002727  71.0062 289.0995 15.06699831  8997
CAS500-2                
1 69013U 26100AK  26174.99585502  .00005114  00000+0  23581-3 0  9993
2 69013  97.4073  72.7333 0009962  13.7472 346.4033 15.20656354  7845
